NORAD_CAT_ID,OBJECT_NAME,OBJECT_TYPE,EPOCH,MEAN_MOTION,ECCENTRICITY,INCLINATION,RA_OF_ASC_NODE,ARG_OF_PERICENTER,MEAN_ANOMALY,BSTAR,MEAN_MOTION_DOT,MEAN_MOTION_DDOT,TLE_LINE0,TLE_LINE1,TLE_LINE2,SEMIMAJOR_AXIS,PERIOD,APOGEE,PERIGEE,DECAYED
50835.0,STARLINK-3310,PAYLOAD,2023-02-12 15:32:21,15.0884655,9.8e-05,53.2144,171.6767,108.889,251.2208,0.00020748,3.016e-05,0.0,0 STARLINK-3310,1 50835U 22001AJ  23043.64747176  .00003016  00000-0  20748-3 0  9994,2 50835  53.2144 171.6767 0000980 108.8890 251.2208 15.08846550 62288,6917.86,95.437,540.403,539.047,0.0
50835.0,STARLINK-3310,PAYLOAD,2023-02-12 17:07:43,15.08857363,9.69e-05,53.2154,171.3789,92.3833,267.727,0.00019247,2.778e-05,0.0,0 STARLINK-3310,1 50835U 22001AJ  23043.71370366  .00002778  00000-0  19247-3 0  9991,2 50835  53.2154 171.3789 0000969  92.3833 267.7270 15.08857363 62297,6917.827,95.436,540.363,539.022,0.0
50835.0,STARLINK-3310,PAYLOAD,2023-02-13 04:15:27,15.08832048,8.24e-05,53.2144,169.298,88.7493,271.3594,-0.00020375,-3.528e-05,0.0,0 STARLINK-3310,1 50835U 22001AJ  23044.17739853 -.00003528  00000-0 -20375-3 0  9992,2 50835  53.2144 169.2980 0000824  88.7493 271.3594 15.08832048 62367,6917.905,95.438,540.34,539.2,0.0
50835.0,STARLINK-3310,PAYLOAD,2023-02-13 10:36:59,15.08831307,0.0001007,53.2148,168.1093,92.3845,267.7263,0.00015307,2.149e-05,0.0,0 STARLINK-3310,1 50835U 22001AJ  23044.44236021  .00002149  00000-0  15307-3 0  9996,2 50835  53.2148 168.1093 0001007  92.3845 267.7263 15.08831307 61144,6917.907,95.438,540.469,539.075,0.0
50835.0,STARLINK-3310,PAYLOAD,2023-02-13 16:58:31,15.08856982,8.62e-05,53.2138,166.9196,89.0155,271.0936,0.00036402,5.513e-05,0.0,0 STARLINK-3310,1 50835U 22001AJ  23044.70730799  .00005513  00000-0  36402-3 0  9993,2 50835  53.2138 166.9196 0000862  89.0155 271.0936 15.08856982 62443,6917.828,95.436,540.29,539.097,0.0
50835.0,STARLINK-3310,PAYLOAD,2023-02-14 02:30:50,15.08837668,0.0001112,53.2134,165.1347,92.82,267.2919,9.7385e-05,1.262e-05,0.0,0 STARLINK-3310,1 50835U 22001AJ  23045.10475587  .00001262  00000-0  97385-4 0  9994,2 50835  53.2134 165.1347 0001112  92.8200 267.2919 15.08837668 62505,6917.888,95.438,540.522,538.983,0.0
50835.0,STARLINK-3310,PAYLOAD,2023-02-14 10:27:46,15.08838126,0.000116,53.2145,163.6486,102.2436,257.8686,0.0001008,1.317e-05,0.0,0 STARLINK-3310,1 50835U 22001AJ  23045.43595763  .00001317  00000-0  10080-3 0  9996,2 50835  53.2145 163.6486 0001160 102.2436 257.8686 15.08838126 61295,6917.886,95.438,540.554,538.949,0.0
50835.0,STARLINK-3310,PAYLOAD,2023-02-14 16:49:18,15.08858225,0.0001178,53.2142,162.4588,98.475,261.6375,0.0004374,6.684e-05,0.0,0 STARLINK-3310,1 50835U 22001AJ  23045.70091077  .00006684  00000-0  43740-3 0  9996,2 50835  53.2142 162.4588 0001178  98.4750 261.6375 15.08858225 62590,6917.825,95.436,540.505,538.875,0.0
50835.0,STARLINK-3310,PAYLOAD,2023-02-15 03:57:01,15.08838215,0.0001587,53.2132,160.3771,94.9763,265.141,1.0852e-05,-1.15e-06,0.0,0 STARLINK-3310,1 50835U 22001AJ  23046.16459744 -.00000115  00000-0  10852-4 0  9999,2 50835  53.2132 160.3771 0001587  94.9763 265.1410 15.08838215 62663,6917.886,95.438,540.849,538.653,0.0
50835.0,STARLINK-3310,PAYLOAD,2023-02-15 13:29:19,15.0885966,0.0001039,53.2145,158.5919,104.8771,255.2336,0.00040619,6.186e-05,0.0,0 STARLINK-3310,1 50835U 22001AJ  23046.56202641  .00006186  00000-0  40619-3 0  9991,2 50835  53.2145 158.5919 0001039 104.8771 255.2336 15.08859660 62723,6917.82,95.436,540.404,538.967,0.0
50835.0,STARLINK-3310,PAYLOAD,2023-02-15 16:40:04,15.08868547,0.0001096,53.2145,157.997,101.3209,258.7906,0.00049626,7.625e-05,0.0,0 STARLINK-3310,1 50835U 22001AJ  23046.69450091  .00007625  00000-0  49626-3 0  9995,2 50835  53.2145 157.9970 0001096 101.3209 258.7906 15.08868547 61481,6917.793,95.436,540.416,538.9,0.0
50835.0,STARLINK-3310,PAYLOAD,2023-02-16 13:20:07,15.08832463,0.000104,53.2141,154.1317,87.777,272.3341,4.0687e-05,3.6e-06,0.0,0 STARLINK-3310,1 50835U 22001AJ  23047.55564219  .00000360  00000-0  40687-4 0  9997,2 50835  53.2141 154.1317 0001040  87.7770 272.3341 15.08832463 62877,6917.903,95.438,540.488,539.049,0.0
50835.0,STARLINK-3310,PAYLOAD,2023-02-16 16:30:53,15.08847548,0.0001163,53.2147,153.5347,92.9472,267.1653,0.00043791,6.69e-05,0.0,0 STARLINK-3310,1 50835U 22001AJ  23047.68811893  .00006690  00000-0  43791-3 0  9994,2 50835  53.2147 153.5347 0001163  92.9472 267.1653 15.08847548 62892,6917.857,95.437,540.527,538.918,0.0
50835.0,STARLINK-3310,PAYLOAD,2023-02-17 02:03:12,15.08838616,0.0001394,53.2135,151.7516,82.4168,277.6982,0.0004317,6.589e-05,0.0,0 STARLINK-3310,1 50835U 22001AJ  23048.08556505  .00006589  00000-0  43170-3 0  9993,2 50835  53.2135 151.7516 0001394  82.4168 277.6982 15.08838616 62953,6917.885,95.438,540.714,538.785,0.0
50835.0,STARLINK-3310,PAYLOAD,2023-02-17 13:10:54,15.08848739,0.0001305,53.2139,149.6705,77.0404,283.0734,0.00047145,7.225e-05,0.0,0 STARLINK-3310,1 50835U 22001AJ  23048.54924047  .00007225  00000-0  47145-3 0  9998,2 50835  53.2139 149.6705 0001305  77.0404 283.0734 15.08848739 61769,6917.854,95.437,540.621,538.816,0.0
50835.0,STARLINK-3310,PAYLOAD,2023-02-17 14:46:17,15.08857659,0.0001372,53.2146,149.3732,72.8039,287.3103,0.00070323,0.00010927,0.0,0 STARLINK-3310,1 50835U 22001AJ  23048.61547792  .00010927  00000-0  70323-3 0  9991,2 50835  53.2146 149.3732 0001372  72.8039 287.3103 15.08857659 63035,6917.826,95.436,540.641,538.742,0.0
50835.0,STARLINK-3310,PAYLOAD,2023-02-18 09:50:55,15.08833552,0.0001314,53.2147,145.8034,100.1072,260.0068,-5.6248e-05,-1.183e-05,0.0,0 STARLINK-3310,1 50835U 22001AJ  23049.41036591 -.00001183  00000-0 -56248-4 0  9997,2 50835  53.2147 145.8034 0001314 100.1072 260.0068 15.08833552 63157,6917.9,95.438,540.674,538.856,0.0
50835.0,STARLINK-3310,PAYLOAD,2023-02-18 13:01:42,15.08832839,0.0001394,53.215,145.21,75.2469,284.8678,-2.9251e-05,-7.53e-06,0.0,0 STARLINK-3310,1 50835U 22001AJ  23049.54284880 -.00000753  00000-0 -29251-4 0  9993,2 50835  53.2150 145.2100 0001394  75.2469 284.8678 15.08832839 61919,6917.902,95.438,540.732,538.803,0.0
50835.0,STARLINK-3310,PAYLOAD,2023-02-19 12:52:28,15.08850996,0.0001358,53.2154,140.751,71.942,288.172,0.00037077,5.62e-05,0.0,0 STARLINK-3310,1 50835U 22001AJ  23050.53644634  .00005620  00000-0  37077-3 0  9991,2 50835  53.2154 140.7510 0001358  71.9420 288.1720 15.08850996 62064,6917.847,95.437,540.651,538.772,0.0
50835.0,STARLINK-3310,PAYLOAD,2023-02-19 14:27:52,15.0885412,0.0001419,53.2152,140.4536,72.9344,287.1803,0.00039711,6.04e-05,0.0,0 STARLINK-3310,1 50835U 22001AJ  23050.60268522  .00006040  00000-0  39711-3 0  9991,2 50835  53.2152 140.4536 0001419  72.9344 287.1803 15.08854120 63336,6917.837,95.437,540.684,538.721,0.0
50835.0,STARLINK-3310,PAYLOAD,2023-02-19 22:24:47,15.08847203,0.0001554,53.2148,138.9671,73.4709,286.6454,0.00037815,5.737e-05,0.0,0 STARLINK-3310,1 50835U 22001AJ  23050.93388834  .00005737  00000-0  37815-3 0  9991,2 50835  53.2148 138.9671 0001554  73.4709 286.6454 15.08847203 63389,6917.858,95.437,540.798,538.648,0.0
50835.0,STARLINK-3310,PAYLOAD,2023-02-20 12:43:15,15.08852469,0.0001338,53.2144,136.292,80.6994,279.4149,0.00037895,5.75e-05,0.0,0 STARLINK-3310,1 50835U 22001AJ  23051.53004190  .00005750  00000-0  37895-3 0  9991,2 50835  53.2144 136.2920 0001338  80.6994 279.4149 15.08852469 62211,6917.842,95.437,540.633,538.782,0.0
50835.0,STARLINK-3310,PAYLOAD,2023-02-20 23:50:57,15.08843357,0.0001427,53.214,134.2092,82.5401,277.5753,0.00011706,1.576e-05,0.0,0 STARLINK-3310,1 50835U 22001AJ  23051.99372419  .00001576  00000-0  11706-3 0  9998,2 50835  53.2140 134.2092 0001427  82.5401 277.5753 15.08843357 63541,6917.87,95.437,540.722,538.748,0.0
50835.0,STARLINK-3310,PAYLOAD,2023-02-21 12:34:02,15.08849452,0.0001339,53.2145,131.8311,94.4528,265.6617,4.1556e-05,3.74e-06,0.0,0 STARLINK-3310,1 50835U 22001AJ  23052.52363904  .00000374  00000-0  41556-4 0  9999,2 50835  53.2145 131.8311 0001339  94.4528 265.6617 15.08849452 62365,6917.851,95.437,540.643,538.79,0.0
50835.0,STARLINK-3310,PAYLOAD,2023-02-22 02:52:30,15.08846694,0.0001323,53.2147,129.1541,102.5591,257.5549,0.00010193,1.335e-05,0.0,0 STARLINK-3310,1 50835U 22001AJ  23053.11979770  .00001335  00000-0  10193-3 0  9999,2 50835  53.2147 129.1541 0001323 102.5591 257.5549 15.08846694 63715,6917.86,95.437,540.64,538.81,0.0
50835.0,STARLINK-3310,PAYLOAD,2023-02-22 12:24:48,15.08849418,0.0001265,53.2146,127.3683,106.0549,254.0582,8.7252e-05,1.101e-05,0.0,0 STARLINK-3310,1 50835U 22001AJ  23053.51723364  .00001101  00000-0  87252-4 0  9991,2 50835  53.2146 127.3683 0001265 106.0549 254.0582 15.08849418 62511,6917.852,95.437,540.592,538.841,0.0
50835.0,STARLINK-3310,PAYLOAD,2023-02-22 21:57:07,15.08846764,0.0001211,53.2149,125.5859,94.9549,265.1581,-4.1835e-05,-9.54e-06,0.0,0 STARLINK-3310,1 50835U 22001AJ  23053.91467463 -.00000954  00000-0 -41835-4 0  9994,2 50835  53.2149 125.5859 0001211  94.9549 265.1581 15.08846764 62574,6917.86,95.437,540.562,538.887,0.0
50835.0,STARLINK-3310,PAYLOAD,2023-02-23 05:54:04,15.08833008,0.0001247,53.2151,124.0984,98.8879,261.2254,7.752e-05,9.46e-06,0.0,0 STARLINK-3310,1 50835U 22001AJ  23054.24588552  .00000946  00000-0  77520-4 0  9993,2 50835  53.2151 124.0984 0001247  98.8879 261.2254 15.08833008 63884,6917.902,95.438,540.629,538.904,0.0
50835.0,STARLINK-3310,PAYLOAD,2023-02-23 10:40:13,15.08838346,0.00012,53.2153,123.2061,103.3232,256.7894,8.7416e-05,1.104e-05,0.0,0 STARLINK-3310,1 50835U 22001AJ  23054.44460080  .00001104  00000-0  87416-4 0  9992,2 50835  53.2153 123.2061 0001200 103.3232 256.7894 15.08838346 62650,6917.885,95.438,540.581,538.92,0.0
50835.0,STARLINK-3310,PAYLOAD,2023-02-23 21:47:55,15.08842259,0.0001306,53.2155,121.1252,79.3311,280.7828,-1.6661e-05,-5.53e-06,0.0,0 STARLINK-3310,1 50835U 22001AJ  23054.90828175 -.00000553  00000-0 -16661-4 0  9999,2 50835  53.2155 121.1252 0001306  79.3311 280.7828 15.08842259 62728,6917.873,95.437,540.642,538.835,0.0
